[
    {
        "Altitude(m)": 605470.7584346582,
        "Argument of Periapsis(deg)": 0.0,
        "Eccentricity": 0.0,
        "Inclination(deg)": 60.0,
        "Latitude(deg)": 27.988103662572666,
        "Longitude(deg)": -7.737113056902259,
        "Mean Anomaly(deg)": -212.7273,
        "RAAN(deg)": 290.0,
        "Satellite Name": "Test1 1285",
        "Satellite Number": 1285,
        "Semi-Major Axis(m)": 6980739.136638005,
        "Time(s)": 0
    },
    {
        "Altitude(m)": 605395.7969211602,
        "Argument of Periapsis(deg)": 0.00010418945913296404,
        "Eccentricity": 0.0,
        "Inclination(deg)": 60.0,
        "Latitude(deg)": 27.473795055705747,
        "Longitude(deg)": -7.383924307087354,
        "Mean Anomaly(deg)": -212.10719385453817,
        "RAAN(deg)": 289.99957995086027,
        "Satellite Name": "Test1 1285",
        "Satellite Number": 1285,
        "Semi-Major Axis(m)": 6980739.136638005,
        "Time(s)": 10
    },
    {
        "Altitude(m)": 605322.6380708441,
        "Argument of Periapsis(deg)": 0.0002083789182659281,
        "Eccentricity": 0.0,
        "Inclination(deg)": 60.0,
        "Latitude(deg)": 26.958340650094605,
        "Longitude(deg)": -7.0343837547535975,
        "Mean Anomaly(deg)": -211.48708770907638,
        "RAAN(deg)": 289.99915990172053,
        "Satellite Name": "Test1 1285",
        "Satellite Number": 1285,
        "Semi-Major Axis(m)": 6980739.136638005,
        "Time(s)": 20
    },
    {
        "Altitude(m)": 605251.3375579749,
        "Argument of Periapsis(deg)": 0.00031256837739889213,
        "Eccentricity": 0.0,
        "Inclination(deg)": 60.0,
        "Latitude(deg)": 26.4417749481966,
        "Longitude(deg)": -6.68838675046588,
        "Mean Anomaly(deg)": -210.86698156361453,
        "RAAN(deg)": 289.9987398525808,
        "Satellite Name": "Test1 1285",
        "Satellite Number": 1285,
        "Semi-Major Axis(m)": 6980739.136638005,
        "Time(s)": 30
    },
    {
        "Altitude(m)": 605181.9503288859,
        "Argument of Periapsis(deg)": 0.0004167578365318562,
        "Eccentricity": 0.0,
        "Inclination(deg)": 60.0,
        "Latitude(deg)": 25.924131598177198,
        "Longitude(deg)": -6.345830377247892,
        "Mean Anomaly(deg)": -210.2468754181527,
        "RAAN(deg)": 289.99831980344106,
        "Satellite Name": "Test1 1285",
        "Satellite Number": 1285,
        "Semi-Major Axis(m)": 6980739.136638005,
        "Time(s)": 40
    },
    {
        "Altitude(m)": 605114.5305730248,
        "Argument of Periapsis(deg)": 0.0005209472956648203,
        "Eccentricity": 0.0,
        "Inclination(deg)": 60.0,
        "Latitude(deg)": 25.4054434264619,
        "Longitude(deg)": -6.0066143944596035,
        "Mean Anomaly(deg)": -209.62676927269084,
        "RAAN(deg)": 289.9978997543013,
        "Satellite Name": "Test1 1285",
        "Satellite Number": 1285,
        "Semi-Major Axis(m)": 6980739.136638005,
        "Time(s)": 50
    },
    {
        "Altitude(m)": 605049.1316943247,
        "Argument of Periapsis(deg)": 0.0006251367547977843,
        "Eccentricity": 0.0,
        "Inclination(deg)": 60.0,
        "Latitude(deg)": 24.88574246917472,
        "Longitude(deg)": -5.670640669601123,
        "Mean Anomaly(deg)": -209.00666312722907,
        "RAAN(deg)": 289.99747970516154,
        "Satellite Name": "Test1 1285",
        "Satellite Number": 1285,
        "Semi-Major Axis(m)": 6980739.136638005,
        "Time(s)": 60
    },
    {
        "Altitude(m)": 604985.8062829382,
        "Argument of Periapsis(deg)": 0.0007293262139307483,
        "Eccentricity": 0.0,
        "Inclination(deg)": 60.0,
        "Latitude(deg)": 24.36506000249957,
        "Longitude(deg)": -5.337812610973603,
        "Mean Anomaly(deg)": -208.38655698176717,
        "RAAN(deg)": 289.9970596560218,
        "Satellite Name": "Test1 1285",
        "Satellite Number": 1285,
        "Semi-Major Axis(m)": 6980739.136638005,
        "Time(s)": 70
    },
    {
        "Altitude(m)": 604924.606087315,
        "Argument of Periapsis(deg)": 0.0008335156730637124,
        "Eccentricity": 0.0,
        "Inclination(deg)": 60.0,
        "Latitude(deg)": 23.84342657199948,
        "Longitude(deg)": -5.008036114117451,
        "Mean Anomaly(deg)": -207.76645083630538,
        "RAAN(deg)": 289.99663960688207,
        "Satellite Name": "Test1 1285",
        "Satellite Number": 1285,
        "Semi-Major Axis(m)": 6980739.136638005,
        "Time(s)": 80
    },
    {
        "Altitude(m)": 604865.5819866512,
        "Argument of Periapsis(deg)": 0.0009377051321966765,
        "Eccentricity": 0.0,
        "Inclination(deg)": 60.0,
        "Latitude(deg)": 23.320872020937458,
        "Longitude(deg)": -4.681218996323919,
        "Mean Anomaly(deg)": -207.14634469084353,
        "RAAN(deg)": 289.99621955774234,
        "Satellite Name": "Test1 1285",
        "Satellite Number": 1285,
        "Semi-Major Axis(m)": 6980739.136638005,
        "Time(s)": 90
    },
    {
        "Altitude(m)": 604808.7839637226,
        "Argument of Periapsis(deg)": 0.0010418945913296407,
        "Eccentricity": 0.0,
        "Inclination(deg)": 60.0,
        "Latitude(deg)": 22.79742551763208,
        "Longitude(deg)": -4.357270432120977,
        "Mean Anomaly(deg)": -206.5262385453817,
        "RAAN(deg)": 289.9957995086026,
        "Satellite Name": "Test1 1285",
        "Satellite Number": 1285,
        "Semi-Major Axis(m)": 6980739.136638005,
        "Time(s)": 100
    },
    {
        "Altitude(m)": 604754.2610781237,
        "Argument of Periapsis(deg)": 0.0011460840504626045,
        "Eccentricity": 0.0,
        "Inclination(deg)": 60.0,
        "Latitude(deg)": 22.273115581881328,
        "Longitude(deg)": -4.036101902633898,
        "Mean Anomaly(deg)": -205.90613239991987,
        "RAAN(deg)": 289.99537945946287,
        "Satellite Name": "Test1 1285",
        "Satellite Number": 1285,
        "Semi-Major Axis(m)": 6980739.136638005,
        "Time(s)": 110
    },
    {
        "Altitude(m)": 604702.0614399149,
        "Argument of Periapsis(deg)": 0.0012502735095955685,
        "Eccentricity": 0.0,
        "Inclination(deg)": 60.0,
        "Latitude(deg)": 21.747970110495363,
        "Longitude(deg)": -3.7176266330897145,
        "Mean Anomaly(deg)": -205.28602625445802,
        "RAAN(deg)": 289.99495941032313,
        "Satellite Name": "Test1 1285",
        "Satellite Number": 1285,
        "Semi-Major Axis(m)": 6980739.136638005,
        "Time(s)": 120
    },
    {
        "Altitude(m)": 604652.2321837158,
        "Argument of Periapsis(deg)": 0.0013544629687285324,
        "Eccentricity": 0.0,
        "Inclination(deg)": 60.0,
        "Latitude(deg)": 21.222016401969377,
        "Longitude(deg)": -3.4017590313512116,
        "Mean Anomaly(deg)": -204.66592010899623,
        "RAAN(deg)": 289.99453936118334,
        "Satellite Name": "Test1 1285",
        "Satellite Number": 1285,
        "Semi-Major Axis(m)": 6980739.136638005,
        "Time(s)": 130
    },
    {
        "Altitude(m)": 604604.8194432075,
        "Argument of Periapsis(deg)": 0.0014586524278614966,
        "Eccentricity": 0.0,
        "Inclination(deg)": 60.0,
        "Latitude(deg)": 20.6952811803272,
        "Longitude(deg)": -3.088415640359746,
        "Mean Anomaly(deg)": -204.04581396353439,
        "RAAN(deg)": 289.9941193120436,
        "Satellite Name": "Test1 1285",
        "Satellite Number": 1285,
        "Semi-Major Axis(m)": 6980739.136638005,
        "Time(s)": 140
    },
    {
        "Altitude(m)": 604559.8683261342,
        "Argument of Periapsis(deg)": 0.0015628418869944607,
        "Eccentricity": 0.0,
        "Inclination(deg)": 60.0,
        "Latitude(deg)": 20.167790618174024,
        "Longitude(deg)": -2.7775145787428954,
        "Mean Anomaly(deg)": -203.42570781807254,
        "RAAN(deg)": 289.99369926290393,
        "Satellite Name": "Test1 1285",
        "Satellite Number": 1285,
        "Semi-Major Axis(m)": 6980739.136638005,
        "Time(s)": 150
    },
    {
        "Altitude(m)": 604517.4228897268,
        "Argument of Periapsis(deg)": 0.0016670313461274247,
        "Eccentricity": 0.0,
        "Inclination(deg)": 60.0,
        "Latitude(deg)": 19.639570358986337,
        "Longitude(deg)": -2.4689749824567637,
        "Mean Anomaly(deg)": -202.80560167261072,
        "RAAN(deg)": 289.99327921376414,
        "Satellite Name": "Test1 1285",
        "Satellite Number": 1285,
        "Semi-Major Axis(m)": 6980739.136638005,
        "Time(s)": 160
    },
    {
        "Altitude(m)": 604477.5261166746,
        "Argument of Periapsis(deg)": 0.0017712208052603888,
        "Eccentricity": 0.0,
        "Inclination(deg)": 60.0,
        "Latitude(deg)": 19.11064553866789,
        "Longitude(deg)": -2.162717960330894,
        "Mean Anomaly(deg)": -202.18549552714893,
        "RAAN(deg)": 289.9928591646244,
        "Satellite Name": "Test1 1285",
        "Satellite Number": 1285,
        "Semi-Major Axis(m)": 6980739.136638005,
        "Time(s)": 170
    },
    {
        "Altitude(m)": 604440.2198915072,
        "Argument of Periapsis(deg)": 0.001875410264393353,
        "Eccentricity": 0.0,
        "Inclination(deg)": 60.0,
        "Latitude(deg)": 18.581040806406303,
        "Longitude(deg)": -1.858666037759316,
        "Mean Anomaly(deg)": -201.56538938168705,
        "RAAN(deg)": 289.9924391154847,
        "Satellite Name": "Test1 1285",
        "Satellite Number": 1285,
        "Semi-Major Axis(m)": 6980739.136638005,
        "Time(s)": 180
    },
    {
        "Altitude(m)": 604405.5449775793,
        "Argument of Periapsis(deg)": 0.0019795997235263173,
        "Eccentricity": 0.0,
        "Inclination(deg)": 60.0,
        "Latitude(deg)": 18.050780344857607,
        "Longitude(deg)": -1.5567426013989316,
        "Mean Anomaly(deg)": -200.94528323622527,
        "RAAN(deg)": 289.99201906634494,
        "Satellite Name": "Test1 1285",
        "Satellite Number": 1285,
        "Semi-Major Axis(m)": 6980739.136638005,
        "Time(s)": 190
    }
]